MALLIGYONG-1            
1 58400U 23179A   23362.57853712  .00007085  00000+0  31515-3 0  9990
2 58400  97.4258 246.8672 0016647 143.0487 217.1899 15.21673989  5621
